NORAD_CAT_ID,OBJECT_NAME,OBJECT_TYPE,EPOCH,MEAN_MOTION,ECCENTRICITY,INCLINATION,RA_OF_ASC_NODE,ARG_OF_PERICENTER,MEAN_ANOMALY,BSTAR,MEAN_MOTION_DOT,MEAN_MOTION_DDOT,TLE_LINE0,TLE_LINE1,TLE_LINE2,SEMIMAJOR_AXIS,PERIOD,APOGEE,PERIGEE,DECAYED
52632.0,STARLINK-3995,PAYLOAD,2022-11-26 01:05:16,15.08847596,0.0002509,53.2197,254.5324,35.9331,324.1829,0.0001419999999999,1.973e-05,0.0,0 STARLINK-3995,1 52632U 22052AL  22330.04533448  .00001973  00000-0  14200-3 0  9990,2 52632  53.2197 254.5324 0002509  35.9331 324.1829 15.08847596 30265,6917.857,95.437,541.4580000000002,537.986,0.0
52632.0,STARLINK-3995,PAYLOAD,2022-11-26 12:12:58,15.088459099999998,0.0002452,53.219,252.4507,34.7895,325.3257,8.5483e-05,1.073e-05,0.0,0 STARLINK-3995,1 52632U 22052AL  22330.50901530  .00001073  00000-0  85483-4 0  9995,2 52632  53.2190 252.4507 0002452  34.7895 325.3257 15.08845910 29968,6917.861999999999,95.437,541.424,538.031,0.0
52632.0,STARLINK-3995,PAYLOAD,2022-11-26 18:34:31,15.08848361,0.0002415,53.2193,251.2601,34.1341,325.9806,0.00013604,1.878e-05,0.0,0 STARLINK-3995,1 52632U 22052AL  22330.77397043  .00001878  00000-0  13604-3 0  9990,2 52632  53.2193 251.2601 0002415  34.1341 325.9806 15.08848361 30008,6917.855,95.437,541.39,538.049,0.0
52632.0,STARLINK-3995,PAYLOAD,2022-11-27 04:06:49,15.08848756,0.0002529,53.2198,249.4774,34.4904,325.6252,0.0001153,1.548e-05,0.0,0 STARLINK-3995,1 52632U 22052AL  22331.17140848  .00001548  00000-0  11530-3 0  9994,2 52632  53.2198 249.4774 0002529  34.4904 325.6252 15.08848756 30434,6917.854,95.437,541.4680000000002,537.969,0.0
52632.0,STARLINK-3995,PAYLOAD,2022-11-28 03:57:37,15.0883858,0.0002614,53.2194,245.0177,33.3374,326.7782,-9.7028e-05,-1.832e-05,0.0,0 STARLINK-3995,1 52632U 22052AL  22332.16501938 -.00001832  00000-0 -97028-4 0  9990,2 52632  53.2194 245.0177 0002614  33.3374 326.7782 15.08838580 30583,6917.885,95.438,541.558,537.941,0.0
52632.0,STARLINK-3995,PAYLOAD,2022-11-29 00:37:37,15.08864516,0.0002957,53.2193,241.1518,39.8471,320.2738,-0.00045714,-7.562e-05,0.0,0 STARLINK-3995,1 52632U 22052AL  22333.02613268 -.00007562  00000-0 -45714-3 0  9996,2 52632  53.2193 241.1518 0002957  39.8471 320.2738 15.08864516 30710,6917.805,95.436,541.716,537.625,0.0
52632.0,STARLINK-3995,PAYLOAD,2022-11-29 03:48:24,15.08849757,0.0002508,53.2193,240.5563,38.1899,321.9271,-0.00027119,-4.603e-05,0.0,0 STARLINK-3995,1 52632U 22052AL  22333.15861795 -.00004603  00000-0 -27119-3 0  9992,2 52632  53.2193 240.5563 0002508  38.1899 321.9271 15.08849757 30733,6917.851,95.437,541.451,537.981,0.0
52632.0,STARLINK-3995,PAYLOAD,2022-11-30 00:28:25,15.08831748,0.0002398,53.2188,236.6913,37.2039,322.9119,8.4102e-05,1.05e-05,0.0,0 STARLINK-3995,1 52632U 22052AL  22334.01974231  .00001050  00000-0  84102-4 0  9995,2 52632  53.2188 236.6913 0002398  37.2039 322.9119 15.08831748 30862,6917.906,95.438,541.43,538.112,0.0
52632.0,STARLINK-3995,PAYLOAD,2022-11-30 03:39:12,15.08829261,0.0002316,53.2185,236.0964,37.1306,322.9846,5.8872e-05,6.49e-06,0.0,0 STARLINK-3995,1 52632U 22052AL  22334.15222500  .00000649  00000-0  58872-4 0  9993,2 52632  53.2185 236.0964 0002316  37.1306 322.9846 15.08829261 30511,6917.913000000001,95.438,541.38,538.1759999999998,0.0
52632.0,STARLINK-3995,PAYLOAD,2022-11-30 17:57:40,15.08836784,0.0002353,53.2183,233.4194,36.2993,323.8159,9.834e-05,1.277e-05,0.0,0 STARLINK-3995,1 52632U 22052AL  22334.74838170  .00001277  00000-0  98340-4 0  9996,2 52632  53.2183 233.4194 0002353  36.2993 323.8159 15.08836784 30603,6917.89,95.438,541.383,538.127,0.0
52632.0,STARLINK-3995,PAYLOAD,2022-12-01 01:54:36,15.08829227,0.0002439,53.2183,231.9334,37.1219,322.9942,4.1238e-05,3.68e-06,0.0,0 STARLINK-3995,1 52632U 22052AL  22335.07958989  .00000368  00000-0  41238-4 0  9998,2 52632  53.2183 231.9334 0002439  37.1219 322.9942 15.08829227 31029,6917.913000000001,95.438,541.466,538.091,0.0
52632.0,STARLINK-3995,PAYLOAD,2022-12-01 03:29:59,15.08832413,0.0002395,53.2187,231.6372,39.4587,320.6579,7.041e-05,8.32e-06,0.0,0 STARLINK-3995,1 52632U 22052AL  22335.14582783  .00000832  00000-0  70410-4 0  9991,2 52632  53.2187 231.6372 0002395  39.4587 320.6579 15.08832413 30667,6917.904,95.438,541.425,538.112,0.0
52632.0,STARLINK-3995,PAYLOAD,2022-12-01 17:48:27,15.08838339,0.000247,53.2186,228.9602,38.4402,321.6766,9.5115e-05,1.226e-05,0.0,0 STARLINK-3995,1 52632U 22052AL  22335.74198415  .00001226  00000-0  95115-4 0  9999,2 52632  53.2186 228.9602 0002470  38.4402 321.6766 15.08838339 30752,6917.885,95.438,541.4590000000002,538.0419999999998,0.0
52632.0,STARLINK-3995,PAYLOAD,2022-12-02 09:42:18,15.08840675,0.0002572,53.2185,225.9862,37.9741,322.1432,9.8258e-05,1.276e-05,0.0,0 STARLINK-3995,1 52632U 22052AL  22336.40438454  .00001276  00000-0  98258-4 0  9999,2 52632  53.2185 225.9862 0002572  37.9741 322.1432 15.08840675 31224,6917.878000000002,95.438,541.523,537.964,0.0
52632.0,STARLINK-3995,PAYLOAD,2022-12-02 19:14:38,15.08833234,0.0002574,53.2187,224.2029,39.3534,320.7645,6.6147e-05,7.64e-06,0.0,0 STARLINK-3995,1 52632U 22052AL  22336.80183021  .00000764  00000-0  66147-4 0  9993,2 52632  53.2187 224.2029 0002574  39.3534 320.7645 15.08833234 30919,6917.901,95.438,541.547,537.985,0.0
52632.0,STARLINK-3995,PAYLOAD,2022-12-03 01:36:11,15.08830061,0.0002609,53.2183,223.0131,37.8241,322.2934,3.1777e-05,2.17e-06,0.0,0 STARLINK-3995,1 52632U 22052AL  22337.06679456  .00000217  00000-0  31777-4 0  9998,2 52632  53.2183 223.0131 0002609  37.8241 322.2934 15.08830061 31322,6917.911,95.438,541.581,537.971,0.0
52632.0,STARLINK-3995,PAYLOAD,2022-12-03 09:33:06,15.08835855,0.0002616,53.2182,221.526,37.4461,322.6713,8.4385e-05,1.055e-05,0.0,0 STARLINK-3995,1 52632U 22052AL  22337.39799059  .00001055  00000-0  84385-4 0  9990,2 52632  53.2182 221.5260 0002616  37.4461 322.6713 15.08835855 31375,6917.893,95.438,541.568,537.948,0.0
52632.0,STARLINK-3995,PAYLOAD,2022-12-04 03:02:21,15.08829116,0.0002668,53.2187,218.2549,37.783,322.3349,-5.4752e-06,-3.76e-06,0.0,0 STARLINK-3995,1 52632U 22052AL  22338.12664030 -.00000376  00000-0 -54752-5 0  9995,2 52632  53.2187 218.2549 0002668  37.7830 322.3349 15.08829116 31480,6917.9140000000025,95.438,541.624,537.933,0.0
52632.0,STARLINK-3995,PAYLOAD,2022-12-05 01:17:44,15.08840727,0.0002601,53.2185,214.0924,39.0648,321.0532,0.00017744,2.537e-05,0.0,0 STARLINK-3995,1 52632U 22052AL  22339.05398984  .00002537  00000-0  17744-3 0  9997,2 52632  53.2185 214.0924 0002601  39.0648 321.0532 15.08840727 31625,6917.878000000002,95.438,541.543,537.944,0.0
52632.0,STARLINK-3995,PAYLOAD,2022-12-05 09:14:39,15.08851921,0.0002631,53.2185,212.6058,39.9187,320.1999,0.00014831,2.074e-05,0.0,0 STARLINK-3995,1 52632U 22052AL  22339.38518277  .00002074  00000-0  14831-3 0  9992,2 52632  53.2185 212.6058 0002631  39.9187 320.1999 15.08851921 31677,6917.844,95.437,541.529,537.889,0.0
52632.0,STARLINK-3995,PAYLOAD,2022-12-05 15:36:12,15.08849816,0.0002659,53.2186,211.4171,41.6181,318.5013,0.0001111,1.481e-05,0.0,0 STARLINK-3995,1 52632U 22052AL  22339.65014433  .00001481  00000-0  11110-3 0  9995,2 52632  53.2186 211.4171 0002659  41.6181 318.5013 15.08849816 31347,6917.85,95.437,541.555,537.876,0.0
52632.0,STARLINK-3995,PAYLOAD,2022-12-05 21:57:45,15.08841992,0.0002513,53.2187,210.2269,40.3291,319.7887,0.00014382,2.001e-05,0.0,0 STARLINK-3995,1 52632U 22052AL  22339.91510787  .00002001  00000-0  14382-3 0  9990,2 52632  53.2187 210.2269 0002513  40.3291 319.7887 15.08841992 31754,6917.874,95.437,541.4780000000002,538.001,0.0
52632.0,STARLINK-3995,PAYLOAD,2022-12-06 09:05:27,15.08841192,0.0002637,53.2188,208.1444,43.3783,316.7416,0.00011813,1.592e-05,0.0,0 STARLINK-3995,1 52632U 22052AL  22340.37878945  .00001592  00000-0  11813-3 0  9995,2 52632  53.2188 208.1444 0002637  43.3783 316.7416 15.08841192 31456,6917.877,95.437,541.566,537.918,0.0
52632.0,STARLINK-3995,PAYLOAD,2022-12-06 18:37:47,15.08803129,0.0002189,53.2185,206.3561,64.6374,295.4844,0.00034284,5.167e-05,0.0,0 STARLINK-3995,1 52632U 22052AL  22340.77624028  .00005167  00000-0  34284-3 0  9999,2 52632  53.2185 206.3561 0002189  64.6374 295.4844 15.08803129 31510,6917.993,95.44,541.372,538.344,0.0
52632.0,STARLINK-3995,PAYLOAD,2022-12-07 00:59:20,15.08829869,0.0002573,53.2182,205.171,44.5093,315.6105,-0.00012656,-2.302e-05,0.0,0 STARLINK-3995,1 52632U 22052AL  22341.04120412 -.00002302  00000-0 -12656-3 0  9997,2 52632  53.2182 205.1710 0002573  44.5093 315.6105 15.08829869 31921,6917.911,95.438,541.556,537.996,0.0
52632.0,STARLINK-3995,PAYLOAD,2022-12-07 23:14:43,15.08842596,0.0002606,53.2183,201.0088,40.2637,319.8547,4.1474e-05,3.72e-06,0.0,0 STARLINK-3995,1 52632U 22052AL  22341.96855437  .00000372  00000-0  41474-4 0  9994,2 52632  53.2183 201.0088 0002606  40.2637 319.8547 15.08842596 32063,6917.871999999999,95.437,541.54,537.935,0.0
52632.0,STARLINK-3995,PAYLOAD,2022-12-08 23:05:29,15.08846091,0.0002611,53.2182,196.5486,41.0,319.1189,0.00026865,3.991e-05,0.0,0 STARLINK-3995,1 52632U 22052AL  22342.96214530  .00003991  00000-0  26865-3 0  9994,2 52632  53.2182 196.5486 0002611  41.0000 319.1189 15.08846091 32217,6917.861999999999,95.437,541.533,537.9209999999998,0.0
52632.0,STARLINK-3995,PAYLOAD,2022-12-09 07:02:25,15.08843757,0.0002898999999999,53.2193,195.065,45.8776,314.2454,0.00015819,2.23e-05,0.0,0 STARLINK-3995,1 52632U 22052AL  22343.29335013  .00002230  00000-0  15819-3 0  9993,2 52632  53.2193 195.0650 0002899  45.8776 314.2454 15.08843757 31896,6917.869000000002,95.437,541.739,537.7280000000002,0.0
52632.0,STARLINK-3995,PAYLOAD,2022-12-09 19:45:32,15.08825513,0.0001978,53.219,192.6899,58.9386,301.18,-6.2613e-05,-1.284e-05,0.0,0 STARLINK-3995,1 52632U 22052AL  22343.82328848 -.00001284  00000-0 -62613-4 0  9995,2 52632  53.2190 192.6899 0001978  58.9386 301.1800 15.08825513 32341,6917.925,95.438,541.158,538.4209999999998,0.0
